0 ERS 2
1 23560U 95021A   13282.46967726  .00005856  00000-0  39616-3 0  7963
2 23560 098.5648 088.9289 0005049 147.5344 291.5782 15.06977864971462
0 ERS 2
1 23560U 95021A   13283.80382461  .00005642  00000-0  38180-3 0  7978
2 23560 098.5643 090.4124 0005024 144.7369 327.8701 15.06986472971663
0 ERS 2
1 23560U 95021A   13286.13167449  .00004895  00000-0  33182-3 0  7992
2 23560 098.5631 093.0004 0004964 139.4467 354.4468 15.07005188972011
0 ERS 2
1 23560U 95021A   13287.44945009  .00005940  00000-0  40136-3 0  8005
2 23560 098.5628 094.4654 0004901 136.1179 302.6455 15.07014002972216
0 ERS 2
1 23560U 95021A   13288.78585105  .00007232  00000-0  48729-3 0  8013
2 23560 098.5630 095.9512 0004933 132.4038 352.2791 15.07032023972415
0 ERS 2
1 23560U 95021A   13290.11572531  .00007259  00000-0  48885-3 0  8025
2 23560 098.5635 097.4299 0004992 128.0305 007.2626 15.07047303972615
0 ERS 2
1 23560U 95021A   13291.17318380  .00006614  00000-0  44577-3 0  8031
2 23560 098.5640 098.6059 0005027 124.3697 344.5440 15.07061570972771
0 ERS 2
1 23560U 95021A   13292.49295616  .00006054  00000-0  40832-3 0  8042
2 23560 098.5647 100.0737 0005159 119.9506 304.9361 15.07077160972970
0 ERS 2
1 23560U 95021A   13293.76554257  .00006397  00000-0  43095-3 0  8057
2 23560 098.5651 101.4891 0005322 116.2631 008.8210 15.07089868973165
0 ERS 2
1 23560U 95021A   13295.09535394  .00006360  00000-0  42832-3 0  8065
2 23560 098.5653 102.9681 0005431 112.5418 023.0888 15.07103896973363
0 ERS 2
1 23560U 95021A   13296.15627199  .00006640  00000-0  44677-3 0  8079
2 23560 098.5654 104.1481 0005515 110.1286 018.0953 15.07116499973524
